{
  "type": "FeatureCollection",
  "features": [
    {
      "type": "Feature",
      "properties": {
        "norad_id": 46277,
        "name": "NEMO-HD",
        "group": "resource",
        "lat": -60.70264855781183,
        "lon": 72.17699198220762,
        "alt_km": 451.81425710950225,
        "timestamp": "2025-12-26T04:40:05.445980+00:00",
        "meta_object_name": "NEMO-HD",
        "meta_object_id": "2020-061F",
        "meta_epoch": "2025-12-25T22:41:58.023744",
        "meta_mean_motion": 15.4059647,
        "meta_eccentricity": 0.00010264,
        "meta_inclination": 97.2188,
        "meta_ra_of_asc_node": 58.8759,
        "meta_arg_of_pericenter": 53.225,
        "meta_mean_anomaly": 306.9091,
        "meta_ephemeris_type": 0,
        "meta_classification_type": "U",
        "meta_norad_cat_id": 46277,
        "meta_element_set_no": 999,
        "meta_rev_at_epoch": 29527,
        "meta_bstar": 0.00026119081,
        "meta_mean_motion_dot": 0.00010547,
        "meta_mean_motion_ddot": 0,
        "tle_line1": "1 46277U 20061F   25359.94581046  .00010547  00000+0  26119-3 0  9994",
        "tle_line2": "2 46277  97.2188  58.8759 0001026  53.2250 306.9091 15.40596470295275"
      },
      "geometry": {
        "type": "Point",
        "coordinates": [
          72.17699198220762,
          -60.70264855781183
        ]
      }
    },
    {
      "type": "Feature",
      "properties": {
        "norad_id": 46984,
        "name": "SENTINEL-6A",
        "group": "resource",
        "lat": -33.991154072438874,
        "lon": -28.191276440384712,
        "alt_km": 1339.2128159490403,
        "timestamp": "2025-12-26T04:40:05.445991+00:00",
        "meta_object_name": "SENTINEL-6A",
        "meta_object_id": "2020-086A",
        "meta_epoch": "2025-12-25T18:09:57.449088",
        "meta_mean_motion": 12.80930775,
        "meta_eccentricity": 0.00077549,
        "meta_inclination": 66.0401,
        "meta_ra_of_asc_node": 135.2711,
        "meta_arg_of_pericenter": 269.4393,
        "meta_mean_anomaly": 90.5733,
        "meta_ephemeris_type": 0,
        "meta_classification_type": "U",
        "meta_norad_cat_id": 46984,
        "meta_element_set_no": 999,
        "meta_rev_at_epoch": 23811,
        "meta_bstar": 4.727934e-05,
        "meta_mean_motion_dot": -5e-07,
        "meta_mean_motion_ddot": 0,
        "tle_line1": "1 46984U 20086A   25359.75691492 -.00000050  00000+0  47279-4 0  9992",
        "tle_line2": "2 46984  66.0401 135.2711 0007754 269.4393  90.5733 12.80930775238113"
      },
      "geometry": {
        "type": "Point",
        "coordinates": [
          -28.191276440384712,
          -33.991154072438874
        ]
      }
    },
    {
      "type": "Feature",
      "properties": {
        "norad_id": 48079,
        "name": "GAOFEN-12 02",
        "group": "resource",
        "lat": 29.261936898863855,
        "lon": -10.374942987498493,
        "alt_km": 623.979561077349,
        "timestamp": "2025-12-26T04:40:05.446001+00:00",
        "meta_object_name": "GAOFEN-12 02",
        "meta_object_id": "2021-026A",
        "meta_epoch": "2025-12-25T23:40:10.271136",
        "meta_mean_motion": 14.80690282,
        "meta_eccentricity": 0.00035394,
        "meta_inclination": 97.9858,
        "meta_ra_of_asc_node": 353.9291,
        "meta_arg_of_pericenter": 74.5205,
        "meta_mean_anomaly": 285.6398,
        "meta_ephemeris_type": 0,
        "meta_classification_type": "U",
        "meta_norad_cat_id": 48079,
        "meta_element_set_no": 999,
        "meta_rev_at_epoch": 25613,
        "meta_bstar": 7.3952769e-05,
        "meta_mean_motion_dot": 5.16e-06,
        "meta_mean_motion_ddot": 0,
        "tle_line1": "1 48079U 21026A   25359.98622999  .00000516  00000+0  73953-4 0  9999",
        "tle_line2": "2 48079  97.9858 353.9291 0003539  74.5205 285.6398 14.80690282256139"
      },
      "geometry": {
        "type": "Point",
        "coordinates": [
          -10.374942987498493,
          29.261936898863855
        ]
      }
    },
    {
      "type": "Feature",
      "properties": {
        "norad_id": 48268,
        "name": "PLEIADES NEO 3",
        "group": "resource",
        "lat": 35.06245484099891,
        "lon": -101.96941268519807,
        "alt_km": 621.2005540884247,
        "timestamp": "2025-12-26T04:40:05.446012+00:00",
        "meta_object_name": "PLEIADES NEO 3",
        "meta_object_id": "2021-034A",
        "meta_epoch": "2025-12-25T23:09:22.082688",
        "meta_mean_motion": 14.81671828,
        "meta_eccentricity": 0.00013492,
        "meta_inclination": 97.8942,
        "meta_ra_of_asc_node": 72.2159,
        "meta_arg_of_pericenter": 90.1578,
        "meta_mean_anomaly": 269.979,
        "meta_ephemeris_type": 0,
        "meta_classification_type": "U",
        "meta_norad_cat_id": 48268,
        "meta_element_set_no": 999,
        "meta_rev_at_epoch": 25200,
        "meta_bstar": 2.0958615e-05,
        "meta_mean_motion_dot": 1.13e-06,
        "meta_mean_motion_ddot": 0,
        "tle_line1": "1 48268U 21034A   25359.96483892  .00000113  00000+0  20959-4 0  9994",
        "tle_line2": "2 48268  97.8942  72.2159 0001349  90.1578 269.9790 14.81671828252009"
      },
      "geometry": {
        "type": "Point",
        "coordinates": [
          -101.96941268519807,
          35.06245484099891
        ]
      }
    },
    {
      "type": "Feature",
      "properties": {
        "norad_id": 49070,
        "name": "PLEIADES NEO 4",
        "group": "resource",
        "lat": -35.21897011493024,
        "lon": 78.0593827330349,
        "alt_km": 630.8735037341312,
        "timestamp": "2025-12-26T04:40:05.446024+00:00",
        "meta_object_name": "PLEIADES NEO 4",
        "meta_object_id": "2021-073E",
        "meta_epoch": "2025-12-25T22:20:43.621152",
        "meta_mean_motion": 14.81671141,
        "meta_eccentricity": 0.00013665,
        "meta_inclination": 97.8943,
        "meta_ra_of_asc_node": 72.1787,
        "meta_arg_of_pericenter": 88.4676,
        "meta_mean_anomaly": 271.6693,
        "meta_ephemeris_type": 0,
        "meta_classification_type": "U",
        "meta_norad_cat_id": 49070,
        "meta_element_set_no": 999,
        "meta_rev_at_epoch": 23571,
        "meta_bstar": -9.5364176e-05,
        "meta_mean_motion_dot": -8.02e-06,
        "meta_mean_motion_ddot": 0,
        "tle_line1": "1 49070U 21073E   25359.93106043 -.00000802  00000+0 -95364-4 0  9995",
        "tle_line2": "2 49070  97.8943  72.1787 0001366  88.4676 271.6693 14.81671141235715"
      },
      "geometry": {
        "type": "Point",
        "coordinates": [
          78.0593827330349,
          -35.21897011493024
        ]
      }
    },
    {
      "type": "Feature",
      "properties": {
        "norad_id": 49260,
        "name": "LANDSAT 9",
        "group": "resource",
        "lat": -52.51435632965446,
        "lon": -122.7382661574852,
        "alt_km": 710.093307096101,
        "timestamp": "2025-12-26T04:40:05.446035+00:00",
        "meta_object_name": "LANDSAT 9",
        "meta_object_id": "2021-088A",
        "meta_epoch": "2025-12-25T19:21:38.919744",
        "meta_mean_motion": 14.57111045,
        "meta_eccentricity": 0.0001112,
        "meta_inclination": 98.2077,
        "meta_ra_of_asc_node": 67.7273,
        "meta_arg_of_pericenter": 93.391,
        "meta_mean_anomaly": 266.7416,
        "meta_ephemeris_type": 0,
        "meta_classification_type": "U",
        "meta_norad_cat_id": 49260,
        "meta_element_set_no": 999,
        "meta_rev_at_epoch": 22575,
        "meta_bstar": 0.00011045343,
        "meta_mean_motion_dot": 4.52e-06,
        "meta_mean_motion_ddot": 0,
        "tle_line1": "1 49260U 21088A   25359.80670046  .00000452  00000+0  11045-3 0  9999",
        "tle_line2": "2 49260  98.2077  67.7273 0001112  93.3910 266.7416 14.57111045225750"
      },
      "geometry": {
        "type": "Point",
        "coordinates": [
          -122.7382661574852,
          -52.51435632965446
        ]
      }
    },
    {
      "type": "Feature",
      "properties": {
        "norad_id": 51444,
        "name": "CSG-2",
        "group": "resource",
        "lat": 20.063692025597046,
        "lon": 178.41496645481843,
        "alt_km": 622.125485639911,
        "timestamp": "2025-12-26T04:40:05.446045+00:00",
        "meta_object_name": "CSG-2",
        "meta_object_id": "2022-008A",
        "meta_epoch": "2025-12-25T23:42:58.629312",
        "meta_mean_motion": 14.82156312,
        "meta_eccentricity": 0.00014442,
        "meta_inclination": 97.8805,
        "meta_ra_of_asc_node": 181.1115,
        "meta_arg_of_pericenter": 82.1491,
        "meta_mean_anomaly": 277.9886,
        "meta_ephemeris_type": 0,
        "meta_classification_type": "U",
        "meta_norad_cat_id": 51444,
        "meta_element_set_no": 999,
        "meta_rev_at_epoch": 21093,
        "meta_bstar": 6.6530239e-05,
        "meta_mean_motion_dot": 4.78e-06,
        "meta_mean_motion_ddot": 0,
        "tle_line1": "1 51444U 22008A   25359.98817858  .00000478  00000+0  66530-4 0  9990",
        "tle_line2": "2 51444  97.8805 181.1115 0001444  82.1491 277.9886 14.82156312210938"
      },
      "geometry": {
        "type": "Point",
        "coordinates": [
          178.41496645481843,
          20.063692025597046
        ]
      }
    }
  ]
}